NORAD_CAT_ID,OBJECT_NAME,OBJECT_TYPE,EPOCH,MEAN_MOTION,ECCENTRICITY,INCLINATION,RA_OF_ASC_NODE,ARG_OF_PERICENTER,MEAN_ANOMALY,BSTAR,MEAN_MOTION_DOT,MEAN_MOTION_DDOT,TLE_LINE0,TLE_LINE1,TLE_LINE2,SEMIMAJOR_AXIS,PERIOD,APOGEE,PERIGEE,DECAYED
53854.0,STARLINK-4800,PAYLOAD,2024-08-21 03:58:39,15.08834979,0.0001242,53.2179,303.096,87.5049,272.6085,0.00021752,3.175e-05,0.0,0 STARLINK-4800,1 53854U 22114AN  24234.16572991  .00003175  00000-0  21752-3 0  9996,2 53854  53.2179 303.0960 0001242  87.5049 272.6085 15.08834979107199,6917.896,95.438,540.62,538.902,0.0
53854.0,STARLINK-4800,PAYLOAD,2024-08-21 11:55:34,15.0883337,0.0001143,53.2168,301.6075,79.1917,280.9204,0.00017247,2.458e-05,0.0,0 STARLINK-4800,1 53854U 22114AN  24234.49693267  .00002458  00000-0  17247-3 0  9999,2 53854  53.2168 301.6075 0001143  79.1917 280.9204 15.08833370107783,6917.901,95.438,540.556,538.975,0.0
